NORAD_CAT_ID,OBJECT_NAME,OBJECT_TYPE,EPOCH,MEAN_MOTION,ECCENTRICITY,INCLINATION,RA_OF_ASC_NODE,ARG_OF_PERICENTER,MEAN_ANOMALY,BSTAR,MEAN_MOTION_DOT,MEAN_MOTION_DDOT,TLE_LINE0,TLE_LINE1,TLE_LINE2,SEMIMAJOR_AXIS,PERIOD,APOGEE,PERIGEE,DECAYED
52111.0,STARLINK-3708,PAYLOAD,2023-08-27 12:09:20,15.08851481,0.000122,53.2178,272.4315,106.8649,253.2477,0.00017282,2.464e-05,0.0,0 STARLINK-3708,1 52111U 22029Z   23239.50648388  .00002464  00000-0  17282-3 0  9995,2 52111  53.2178 272.4315 0001220 106.8649 253.2477 15.08851481 81113,6917.845,95.437,540.554,538.866,0.0
52111.0,STARLINK-3708,PAYLOAD,2023-08-28 02:27:48,15.08843588,0.0001255,53.2179,269.7554,105.7479,254.3652,-5.2023e-05,-1.116e-05,0.0,0 STARLINK-3708,1 52111U 22029Z   23240.10264523 -.00001116  00000-0 -52023-4 0  9996,2 52111  53.2179 269.7554 0001255 105.7479 254.3652 15.08843588 81201,6917.869,95.437,540.603,538.866,0.0
52111.0,STARLINK-3708,PAYLOAD,2023-08-28 12:00:07,15.08845561,0.000121,53.2178,267.971,99.5483,260.5646,-2.3789e-06,-3.26e-06,0.0,0 STARLINK-3708,1 52111U 22029Z   23240.50008481 -.00000326  00000-0 -23789-5 0  9999,2 52111  53.2178 267.9710 0001210  99.5483 260.5646 15.08845561 81261,6917.863,95.437,540.565,538.891,0.0
52111.0,STARLINK-3708,PAYLOAD,2023-08-29 08:40:08,15.08842358,0.0001158,53.2174,264.1042,99.8146,260.2977,4.6649e-05,4.55e-06,0.0,0 STARLINK-3708,1 52111U 22029Z   23241.36120380  .00000455  00000-0  46649-4 0  9997,2 52111  53.2174 264.1042 0001158  99.8146 260.2977 15.08842358 81393,6917.873,95.437,540.539,538.937,0.0
52111.0,STARLINK-3708,PAYLOAD,2023-08-29 10:15:31,15.08840012,0.0001682,53.2172,263.8069,108.4711,251.6464,8.1841e-05,1.015e-05,0.0,0 STARLINK-3708,1 52111U 22029Z   23241.42744465  .00001015  00000-0  81841-4 0  9996,2 52111  53.2172 263.8069 0001682 108.4711 251.6464 15.08840012 81405,6917.88,95.438,540.909,538.582,0.0
52111.0,STARLINK-3708,PAYLOAD,2023-08-30 02:09:23,15.08833211,0.0001146,53.217,260.8331,94.3956,265.7168,3.1005e-05,2.06e-06,0.0,0 STARLINK-3708,1 52111U 22029Z   23242.08985147  .00000206  00000-0  31005-4 0  9991,2 52111  53.2170 260.8331 0001146  94.3956 265.7168 15.08833211 81502,6917.901,95.438,540.559,538.973,0.0
52111.0,STARLINK-3708,PAYLOAD,2023-08-30 18:03:13,15.08856058,0.0001489,53.2172,257.8597,84.9609,275.1553,0.00019805,2.867e-05,0.0,0 STARLINK-3708,1 52111U 22029Z   23242.75223699  .00002867  00000-0  19805-3 0  9990,2 52111  53.2172 257.8597 0001489  84.9609 275.1553 15.08856058 81602,6917.831,95.437,540.726,538.666,0.0
52111.0,STARLINK-3708,PAYLOAD,2023-08-31 00:24:46,15.08839659,0.0001375,53.2176,256.6707,92.1751,267.9399,8.9554e-05,1.138e-05,0.0,0 STARLINK-3708,1 52111U 22029Z   23243.01720942  .00001138  00000-0  89554-4 0  9992,2 52111  53.2176 256.6707 0001375  92.1751 267.9399 15.08839659 81648,6917.881,95.438,540.698,538.795,0.0
52111.0,STARLINK-3708,PAYLOAD,2023-08-31 09:57:03,15.08867343,0.0001038,53.2173,254.8858,97.3764,262.7346,0.00026426,3.923e-05,0.0,0 STARLINK-3708,1 52111U 22029Z   23243.41462844  .00003923  00000-0  26426-3 0  9992,2 52111  53.2173 254.8858 0001038  97.3764 262.7346 15.08867343 81702,6917.797,95.436,540.38,538.944,0.0
52111.0,STARLINK-3708,PAYLOAD,2023-09-01 09:47:54,15.08812612,0.0001255,53.2175,250.4307,96.5625,263.551,8.3322e-05,1.038e-05,0.0,0 STARLINK-3708,1 52111U 22029Z   23244.40826656  .00001038  00000-0  83322-4 0  9991,2 52111  53.2175 250.4307 0001255  96.5625 263.5510 15.08812612 81850,6917.964,95.439,540.697,538.961,0.0
52111.0,STARLINK-3708,PAYLOAD,2023-09-01 12:58:42,15.08789591,3.02e-05,53.2174,249.8355,90.4672,269.6355,-0.00015256,-2.711e-05,0.0,0 STARLINK-3708,1 52111U 22029Z   23244.54076450 -.00002711  00000-0 -15256-3 0  9996,2 52111  53.2174 249.8355 0000302  90.4672 269.6355 15.08789591 81876,6918.034,95.441,540.108,539.691,0.0
52111.0,STARLINK-3708,PAYLOAD,2023-09-01 17:44:48,15.08840287,0.0001,53.2166,248.9374,84.748,275.3626,4.4533e-05,4.21e-06,0.0,0 STARLINK-3708,1 52111U 22029Z   23244.73945238  .00000421  00000-0  44533-4 0  9991,2 52111  53.2166 248.9374 0001000  84.7480 275.3626 15.08840287 81906,6917.88,95.438,540.436,539.053,0.0
52111.0,STARLINK-3708,PAYLOAD,2023-09-02 00:06:21,15.08839195,0.0001034,53.217,247.7476,90.8004,269.3107,2.7079e-05,1.43e-06,0.0,0 STARLINK-3708,1 52111U 22029Z   23245.00441366  .00000143  00000-0  27079-4 0  9992,2 52111  53.2170 247.7476 0001034  90.8004 269.3107 15.08839195 81945,6917.883,95.438,540.463,539.033,0.0
52111.0,STARLINK-3708,PAYLOAD,2023-09-02 06:27:53,15.0884163,0.0001056,53.2162,246.5584,82.9491,277.1621,5.3024e-05,5.56e-06,0.0,0 STARLINK-3708,1 52111U 22029Z   23245.26937134  .00000556  00000-0  53024-4 0  9990,2 52111  53.2162 246.5584 0001056  82.9491 277.1621 15.08841630 81988,6917.875,95.437,540.471,539.01,0.0
52111.0,STARLINK-3708,PAYLOAD,2023-09-02 17:35:35,15.0884498,0.0001167,53.2164,244.4773,80.7318,279.3806,6.3655e-05,7.26e-06,0.0,0 STARLINK-3708,1 52111U 22029Z   23245.73304845  .00000726  00000-0  63655-4 0  9999,2 52111  53.2164 244.4773 0001167  80.7318 279.3806 15.08844980 82053,6917.865,95.437,540.537,538.923,0.0
52111.0,STARLINK-3708,PAYLOAD,2023-09-03 11:04:49,15.08848865,0.000126,53.2166,241.2048,89.3478,270.7659,0.00013161,1.808e-05,0.0,0 STARLINK-3708,1 52111U 22029Z   23246.46168255  .00001808  00000-0  13161-3 0  9991,2 52111  53.2166 241.2048 0001260  89.3478 270.7659 15.08848865 82160,6917.853,95.437,540.59,538.847,0.0
52111.0,STARLINK-3708,PAYLOAD,2023-09-04 09:20:14,15.08836067,0.0001242,53.217,237.0422,96.5591,263.5542,1.1467e-05,-1.05e-06,0.0,0 STARLINK-3708,1 52111U 22029Z   23247.38905593 -.00000105  00000-0  11467-4 0  9995,2 52111  53.2170 237.0422 0001242  96.5591 263.5542 15.08836067 82308,6917.892,95.438,540.617,538.898,0.0
52111.0,STARLINK-3708,PAYLOAD,2023-09-05 10:46:24,15.08842353,0.0001253,53.2168,232.285,94.2655,265.848,4.6149e-05,4.47e-06,0.0,0 STARLINK-3708,1 52111U 22029Z   23248.44889206  .00000447  00000-0  46149-4 0  9998,2 52111  53.2168 232.2850 0001253  94.2655 265.8480 15.08842353 82463,6917.873,95.437,540.605,538.871,0.0
52111.0,STARLINK-3708,PAYLOAD,2023-09-06 01:04:53,15.08832565,0.0001376,53.2173,229.6085,104.1823,255.9322,8.3626e-05,1.043e-05,0.0,0 STARLINK-3708,1 52111U 22029Z   23249.04505989  .00001043  00000-0  83626-4 0  9992,2 52111  53.2173 229.6085 0001376 104.1823 255.9322 15.08832565 82552,6917.903,95.438,540.72,538.816,0.0
52111.0,STARLINK-3708,PAYLOAD,2023-09-06 09:01:48,15.08838737,0.0001399,53.2174,228.1228,96.3156,263.7995,0.00011907,1.608e-05,0.0,0 STARLINK-3708,1 52111U 22029Z   23249.37625680  .00001608  00000-0  11907-3 0  9998,2 52111  53.2174 228.1228 0001399  96.3156 263.7995 15.08838737 82608,6917.884,95.438,540.717,538.781,0.0
52111.0,STARLINK-3708,PAYLOAD,2023-09-06 21:44:53,15.08838079,0.0001326,53.2161,225.7435,93.2062,266.9081,8.6364e-05,1.087e-05,0.0,0 STARLINK-3708,1 52111U 22029Z   23249.90617973  .00001087  00000-0  86364-4 0  9994,2 52111  53.2161 225.7435 0001326  93.2062 266.9081 15.08838079 82687,6917.886,95.438,540.669,538.834,0.0
52111.0,STARLINK-3708,PAYLOAD,2023-09-07 08:52:35,15.08839279,0.0001449,53.2154,223.6615,105.6926,254.4226,0.00017989,2.576e-05,0.0,0 STARLINK-3708,1 52111U 22029Z   23250.36985697  .00002576  00000-0  17989-3 0  9997,2 52111  53.2154 223.6615 0001449 105.6926 254.4226 15.08839279 82753,6917.883,95.438,540.75,538.745,0.0
52111.0,STARLINK-3708,PAYLOAD,2023-09-08 02:21:50,15.088375,0.0001477,53.215,220.3903,90.1117,270.0044,4.1641e-05,3.75e-06,0.0,0 STARLINK-3708,1 52111U 22029Z   23251.09850257  .00000375  00000-0  41641-4 0  9999,2 52111  53.2150 220.3903 0001477  90.1117 270.0044 15.08837500 82863,6917.888,95.438,540.775,538.731,0.0
52111.0,STARLINK-3708,PAYLOAD,2023-09-08 10:18:45,15.0884396,0.0001437,53.2169,218.9038,89.5413,270.5743,8.3182e-05,1.036e-05,0.0,0 STARLINK-3708,1 52111U 22029Z   23251.42969742  .00001036  00000-0  83182-4 0  9997,2 52111  53.2169 218.9038 0001437  89.5413 270.5743 15.08843960 82916,6917.868,95.437,540.727,538.739,0.0
52111.0,STARLINK-3708,PAYLOAD,2023-09-08 15:04:55,15.08839849,0.0001303,53.2161,218.0114,91.1602,268.954,7.9658e-05,9.8e-06,0.0,0 STARLINK-3708,1 52111U 22029Z   23251.62842026  .00000980  00000-0  79658-4 0  9994,2 52111  53.2161 218.0114 0001303  91.1602 268.9540 15.08839849 82945,6917.881,95.438,540.647,538.844,0.0
52111.0,STARLINK-3708,PAYLOAD,2023-09-09 06:58:46,15.0884961,0.0001415,53.218,215.0385,90.8197,269.2957,0.00011843,1.598e-05,0.0,0 STARLINK-3708,1 52111U 22029Z   23252.29081418  .00001598  00000-0  11843-3 0  9995,2 52111  53.2180 215.0385 0001415  90.8197 269.2957 15.08849610 83047,6917.851,95.437,540.695,538.737,0.0
52111.0,STARLINK-3708,PAYLOAD,2023-09-09 14:55:42,15.08842651,0.0001426,53.219,213.5525,82.8615,277.2539,3.5482e-05,2.77e-06,0.0,0 STARLINK-3708,1 52111U 22029Z   23252.62202016  .00000277  00000-0  35482-4 0  9990,2 52111  53.2190 213.5525 0001426  82.8615 277.2539 15.08842651 83093,6917.872,95.437,540.724,538.751,0.0
52111.0,STARLINK-3708,PAYLOAD,2023-09-10 03:38:47,15.08841439,0.0001288,53.2173,211.1714,96.2364,263.8775,4.8661e-05,4.87e-06,0.0,0 STARLINK-3708,1 52111U 22029Z   23253.15194165  .00000487  00000-0  48661-4 0  9990,2 52111  53.2173 211.1714 0001288  96.2364 263.8775 15.08841439 83179,6917.876,95.437,540.632,538.85,0.0
52111.0,STARLINK-3708,PAYLOAD,2023-09-11 03:29:34,15.08847479,0.0001406,53.2175,206.711,91.496,268.6194,0.00013012,1.784e-05,0.0,0 STARLINK-3708,1 52111U 22029Z   23254.14553790  .00001784  00000-0  13012-3 0  9995,2 52111  53.2175 206.7110 0001406  91.4960 268.6194 15.08847479 83327,6917.858,95.437,540.695,538.75,0.0
52111.0,STARLINK-3708,PAYLOAD,2023-09-12 03:20:21,15.08848545,0.0001236,53.217,202.2499,94.3465,265.7668,0.00017646,2.522e-05,0.0,0 STARLINK-3708,1 52111U 22029Z   23255.13913621  .00002522  00000-0  17646-3 0  9996,2 52111  53.2170 202.2499 0001236  94.3465 265.7668 15.08848545 83471,6917.854,95.437,540.574,538.864,0.0
